STARLINK-31531          
1 59477U 24068Y   26068.13383020 -.00002463  00000+0 -80017-4 0  9990
2 59477  43.0024 342.5063 0001877 271.2960  88.7677 15.27570634109069
HYPERFIELD-1A           
1 60562U 24149CY  26068.76488211  .00008569  00000+0  30052-3 0  9998
2 60562  97.3842 149.5066 0003865 313.7844  46.3076 15.29681349 86836
